{
  "type": "FeatureCollection",
  "features": [
    {
      "type": "Feature",
      "properties": {
        "norad_id": 30250,
        "name": "FENGYUN 1C DEB",
        "group": "fengyun-1c-debris",
        "lat": 42.97922725319976,
        "lon": -22.21826409181067,
        "alt_km": 930.5298136608089,
        "timestamp": "2025-12-20T09:36:01.920402+00:00",
        "meta_object_name": "FENGYUN 1C DEB",
        "meta_object_id": "1999-025XK",
        "meta_epoch": "2025-12-19T21:41:34.870848",
        "meta_mean_motion": 14.01632812,
        "meta_eccentricity": 0.00683449,
        "meta_inclination": 98.7543,
        "meta_ra_of_asc_node": 345.561,
        "meta_arg_of_pericenter": 203.0664,
        "meta_mean_anomaly": 218.8094,
        "meta_ephemeris_type": 0,
        "meta_classification_type": "U",
        "meta_norad_cat_id": 30250,
        "meta_element_set_no": 999,
        "meta_rev_at_epoch": 96592,
        "meta_bstar": 0.00021481098,
        "meta_mean_motion_dot": 2.9e-06,
        "meta_mean_motion_ddot": 0,
        "tle_line1": "1 30250U 99025XK  25353.90387582  .00000290  00000+0  21481-3 0  9994",
        "tle_line2": "2 30250  98.7543 345.5610 0068344 203.0664 218.8094 14.01632812965929"
      },
      "geometry": {
        "type": "Point",
        "coordinates": [
          -22.21826409181067,
          42.97922725319976
        ]
      }
    },
    {
      "type": "Feature",
      "properties": {
        "norad_id": 30251,
        "name": "FENGYUN 1C DEB",
        "group": "fengyun-1c-debris",
        "lat": 27.992723182386,
        "lon": 17.87223350452824,
        "alt_km": 826.6138878653701,
        "timestamp": "2025-12-20T09:36:01.920412+00:00",
        "meta_object_name": "FENGYUN 1C DEB",
        "meta_object_id": "1999-025XL",
        "meta_epoch": "2025-12-19T11:20:19.153824",
        "meta_mean_motion": 14.2931922,
        "meta_eccentricity": 0.0051549,
        "meta_inclination": 99.0488,
        "meta_ra_of_asc_node": 192.0504,
        "meta_arg_of_pericenter": 310.7136,
        "meta_mean_anomaly": 110.8293,
        "meta_ephemeris_type": 0,
        "meta_classification_type": "U",
        "meta_norad_cat_id": 30251,
        "meta_element_set_no": 999,
        "meta_rev_at_epoch": 98238,
        "meta_bstar": 0.00035162,
        "meta_mean_motion_dot": 8.6e-06,
        "meta_mean_motion_ddot": 0,
        "tle_line1": "1 30251U 99025XL  25353.47244391  .00000860  00000+0  35162-3 0  9991",
        "tle_line2": "2 30251  99.0488 192.0504 0051549 310.7136 110.8293 14.29319220982384"
      },
      "geometry": {
        "type": "Point",
        "coordinates": [
          17.87223350452824,
          27.992723182386
        ]
      }
    },
    {
      "type": "Feature",
      "properties": {
        "norad_id": 30252,
        "name": "FENGYUN 1C DEB",
        "group": "fengyun-1c-debris",
        "lat": -16.53091859577586,
        "lon": -173.39918527371933,
        "alt_km": 821.0029427972522,
        "timestamp": "2025-12-20T09:36:01.920422+00:00",
        "meta_object_name": "FENGYUN 1C DEB",
        "meta_object_id": "1999-025XM",
        "meta_epoch": "2025-12-19T13:01:33.998304",
        "meta_mean_motion": 14.09721071,
        "meta_eccentricity": 0.0066178,
        "meta_inclination": 98.743,
        "meta_ra_of_asc_node": 8.386,
        "meta_arg_of_pericenter": 222.1885,
        "meta_mean_anomaly": 306.5183,
        "meta_ephemeris_type": 0,
        "meta_classification_type": "U",
        "meta_norad_cat_id": 30252,
        "meta_element_set_no": 999,
        "meta_rev_at_epoch": 97061,
        "meta_bstar": 0.0002994,
        "meta_mean_motion_dot": 4.93e-06,
        "meta_mean_motion_ddot": 0,
        "tle_line1": "1 30252U 99025XM  25353.54275461  .00000493  00000+0  29940-3 0  9991",
        "tle_line2": "2 30252  98.7430   8.3860 0066178 222.1885 306.5183 14.09721071970617"
      },
      "geometry": {
        "type": "Point",
        "coordinates": [
          -173.39918527371933,
          -16.53091859577586
        ]
      }
    },
    {
      "type": "Feature",
      "properties": {
        "norad_id": 30253,
        "name": "FENGYUN 1C DEB",
        "group": "fengyun-1c-debris",
        "lat": 64.391515908343,
        "lon": 63.06736078280071,
        "alt_km": 865.1991947263305,
        "timestamp": "2025-12-20T09:36:01.920432+00:00",
        "meta_object_name": "FENGYUN 1C DEB",
        "meta_object_id": "1999-025XN",
        "meta_epoch": "2025-12-19T05:34:23.218752",
        "meta_mean_motion": 13.73205975,
        "meta_eccentricity": 0.0220969,
        "meta_inclination": 98.7521,
        "meta_ra_of_asc_node": 80.7458,
        "meta_arg_of_pericenter": 23.817,
        "meta_mean_anomaly": 30.2803,
        "meta_ephemeris_type": 0,
        "meta_classification_type": "U",
        "meta_norad_cat_id": 30253,
        "meta_element_set_no": 999,
        "meta_rev_at_epoch": 94103,
        "meta_bstar": 0.0015613,
        "meta_mean_motion_dot": 1.685e-05,
        "meta_mean_motion_ddot": 0,
        "tle_line1": "1 30253U 99025XN  25353.23221318  .00001685  00000+0  15613-2 0  9995",
        "tle_line2": "2 30253  98.7521  80.7458 0220969  23.8170  30.2803 13.73205975941033"
      },
      "geometry": {
        "type": "Point",
        "coordinates": [
          63.06736078280071,
          64.391515908343
        ]
      }
    },
    {
      "type": "Feature",
      "properties": {
        "norad_id": 30257,
        "name": "FENGYUN 1C DEB",
        "group": "fengyun-1c-debris",
        "lat": -17.319033290779657,
        "lon": 169.99756145875847,
        "alt_km": 886.2644122405663,
        "timestamp": "2025-12-20T09:36:01.920443+00:00",
        "meta_object_name": "FENGYUN 1C DEB",
        "meta_object_id": "1999-025XS",
        "meta_epoch": "2025-12-19T11:14:57.954048",
        "meta_mean_motion": 14.09727215,
        "meta_eccentricity": 0.0059721,
        "meta_inclination": 98.7494,
        "meta_ra_of_asc_node": 351.8449,
        "meta_arg_of_pericenter": 80.5354,
        "meta_mean_anomaly": 72.5729,
        "meta_ephemeris_type": 0,
        "meta_classification_type": "U",
        "meta_norad_cat_id": 30257,
        "meta_element_set_no": 999,
        "meta_rev_at_epoch": 97312,
        "meta_bstar": 0.00015545,
        "meta_mean_motion_dot": 2.35e-06,
        "meta_mean_motion_ddot": 0,
        "tle_line1": "1 30257U 99025XS  25353.46872632  .00000235  00000+0  15545-3 0  9990",
        "tle_line2": "2 30257  98.7494 351.8449 0059721  80.5354  72.5729 14.09727215973125"
      },
      "geometry": {
        "type": "Point",
        "coordinates": [
          169.99756145875847,
          -17.319033290779657
        ]
      }
    },
    {
      "type": "Feature",
      "properties": {
        "norad_id": 30259,
        "name": "FENGYUN 1C DEB",
        "group": "fengyun-1c-debris",
        "lat": -42.770381332519776,
        "lon": -145.34720406625536,
        "alt_km": 669.557049675057,
        "timestamp": "2025-12-20T09:36:01.920453+00:00",
        "meta_object_name": "FENGYUN 1C DEB",
        "meta_object_id": "1999-025XU",
        "meta_epoch": "2025-12-19T08:10:00.624864",
        "meta_mean_motion": 14.51536785,
        "meta_eccentricity": 0.0241986,
        "meta_inclination": 98.7611,
        "meta_ra_of_asc_node": 205.3459,
        "meta_arg_of_pericenter": 248.2066,
        "meta_mean_anomaly": 291.382,
        "meta_ephemeris_type": 0,
        "meta_classification_type": "U",
        "meta_norad_cat_id": 30259,
        "meta_element_set_no": 999,
        "meta_rev_at_epoch": 99570,
        "meta_bstar": 0.0003294,
        "meta_mean_motion_dot": 1.864e-05,
        "meta_mean_motion_ddot": 0,
        "tle_line1": "1 30259U 99025XU  25353.34028501  .00001864  00000+0  32940-3 0  9994",
        "tle_line2": "2 30259  98.7611 205.3459 0241986 248.2066 291.3820 14.51536785995709"
      },
      "geometry": {
        "type": "Point",
        "coordinates": [
          -145.34720406625536,
          -42.770381332519776
        ]
      }
    },
    {
      "type": "Feature",
      "properties": {
        "norad_id": 30263,
        "name": "FENGYUN 1C DEB",
        "group": "fengyun-1c-debris",
        "lat": 37.935716204188346,
        "lon": -63.53260150909459,
        "alt_km": 985.8082271432268,
        "timestamp": "2025-12-20T09:36:01.920463+00:00",
        "meta_object_name": "FENGYUN 1C DEB",
        "meta_object_id": "1999-025XY",
        "meta_epoch": "2025-12-18T14:08:56.073696",
        "meta_mean_motion": 14.01490934,
        "meta_eccentricity": 0.0144605,
        "meta_inclination": 98.9353,
        "meta_ra_of_asc_node": 107.6503,
        "meta_arg_of_pericenter": 344.0325,
        "meta_mean_anomaly": 27.3423,
        "meta_ephemeris_type": 0,
        "meta_classification_type": "U",
        "meta_norad_cat_id": 30263,
        "meta_element_set_no": 999,
        "meta_rev_at_epoch": 96107,
        "meta_bstar": 0.00076369927,
        "meta_mean_motion_dot": 1.22e-05,
        "meta_mean_motion_ddot": 0,
        "tle_line1": "1 30263U 99025XY  25352.58953789  .00001220  00000+0  76370-3 0  9990",
        "tle_line2": "2 30263  98.9353 107.6503 0144605 344.0325  27.3423 14.01490934961075"
      },
      "geometry": {
        "type": "Point",
        "coordinates": [
          -63.53260150909459,
          37.935716204188346
        ]
      }
    }
  ]
}